GLOBALSTAR M024         
1 25883U 99043A   25042.43809215 -.00000092  00000+0 -96775-3 0  9995
2 25883  52.0039 304.3606 0000731 257.7273 272.9954 11.10165662100898
GLOBALSTAR M027         
1 25884U 99043B   25042.59323388 -.00000114  00000+0 -19066-2 0  9997
2 25884  52.0246  18.4281 0021369 148.2404 211.9683 11.04370610127368
GLOBALSTAR M053         
1 25886U 99043D   25042.58339016 -.00000054  00000+0  41782-3 0  9996
2 25886  51.9977 106.9557 0003527 216.6191 316.1802 11.27662872105273
GLOBALSTAR M058         
1 25907U 99049A   25042.48553868  .00000007  00000+0  12311-2 0  9990
2 25907  51.9938  84.8305 0001851  46.2675 313.8312 11.93198381526539
GLOBALSTAR M050         
1 25908U 99049B   25042.45894649  .00000021  00000+0  12338-2 0  9998
2 25908  51.9987 101.9705 0009714 140.8772 232.1600 12.07448459133003
GLOBALSTAR M055         
1 25910U 99049D   25042.56604767 -.00000070  00000+0  20451-3 0  9994
2 25910  52.0050 359.0488 0006668 230.7295 129.2966 12.29420567152834
